HORYU-4                 
1 41340U 16012D   21165.76111091  .00000444  00000-0  26543-4 0  9999
2 41340  31.0035 183.8596 0013733 146.1507 214.0008 15.01896004292380
E-ST@R-II               
1 41459U 16025D   21166.15997974  .00002785  00000-0  13741-3 0  9995
2 41459  98.1427 302.2208 0161368  70.6467 291.2122 15.08122417282077
AAUSAT 4                
1 41460U 16025E   21166.12743013  .00003608  00000-0  16890-3 0  9990
2 41460  98.1424 306.0516 0147936  54.6679 306.8287 15.11215863282361
BEESAT-4                
1 41619U 16040W   21165.90143082  .00001943  00000-0  79369-4 0  9999
2 41619  97.2689 222.0635 0010038 350.2498   9.8544 15.25524871264627
CANX-7                  
1 41788U 16059F   21166.19795537  .00013913  00000-0  15729-2 0  9994
2 41788  98.2532 271.2405 0027692 197.7399 162.2851 14.86320627253533
RAVAN                   
1 41849U 16067B   21165.92742391  .00000292  00000-0  29241-4 0  9993
2 41849  97.9629 288.6949 0008397 114.0543 246.1559 14.99055693250911
CELTEE 1                
1 41850U 16067C   21166.14579647  .00000928  00000-0  84902-4 0  9993
2 41850  97.9554 285.4492 0010454 116.6955 243.5338 14.97463646250779
OPTICUBE 04             
1 41851U 16067D   21165.88095272  .00000801  00000-0  74641-4 0  9990
2 41851  97.9541 284.5711 0010456 119.1416 241.0853 14.97117171250709
AEROCUBE 8D             
1 41852U 16067E   21165.88728191  .00000689  00000-0  64807-4 0  9991
2 41852  97.9544 284.4513 0011155 119.1575 241.0764 14.97230013250684
AEROCUBE 8C             
1 41853U 16067F   21165.86034587  .00000398  00000-0  39703-4 0  9993
2 41853  97.9526 284.2913 0011159 123.0182 237.2113 14.97187668250670
PROMETHEUS 2-1          
1 41854U 16067G   21165.86800036  .00000836  00000-0  76625-4 0  9995
2 41854  97.9538 284.9036 0011671 121.5682 238.6680 14.97678931250700
PROMETHEUS 2-3          
1 41855U 16067H   21166.13266261  .00000753  00000-0  69462-4 0  9992
2 41855  97.9540 285.2259 0011772 121.4044 238.8330 14.97695768250743
INS-1B                  
1 41954U 17008G   21165.91086161  .00001965  00000-0  78599-4 0  9999
2 41954  97.3071 229.0731 0010612 100.1447 260.0990 15.26209481240621
BGUSAT                  
1 41999U 17008BD  21165.87215530  .00003471  00000-0  12197-3 0  9992
2 41999  97.3240 235.5838 0009312 102.6967 257.5315 15.30012863240316
DIDO-2                  
1 42000U 17008BE  21165.73418743  .00001061  00000-0  44772-4 0  9990
2 42000  97.3076 229.1509 0009817 116.7022 243.5223 15.25388875239975
PEASSS                  
1 42015U 17008BV  21165.73256506  .00001694  00000-0  66792-4 0  9991
2 42015  97.3111 231.6001 0007791 115.4760 244.7286 15.26907745240608
AL-FARABI 1             
1 42016U 17008BW  21166.17051161  .00002258  00000-0  84958-4 0  9992
2 42016  97.3159 233.8034 0007625 112.8837 247.3209 15.28130446240885
NAYIF-1 (EO-88)         
1 42017U 17008BX  21165.87636563  .00002360  00000-0  88525-4 0  9992
2 42017  97.3153 233.5222 0007664 113.0879 247.1169 15.28182316240862
UCLSAT                  
1 42765U 17036A   21165.83244059  .00001711  00000-0  71559-4 0  9992
2 42765  97.2488 215.4731 0010927 177.3169 182.8130 15.24860189221776
LITUANICASAT-2          
1 42768U 17036D   21165.91666295  .00002848  00000-0  11221-3 0  9995
2 42768  97.2562 216.3473 0014211 167.6829 192.4760 15.26303813221088
AALTO-1                 
1 42775U 17036L   21166.11932905  .00001050  00000-0  47902-4 0  9990
2 42775  97.2467 212.4257 0013603 175.7352 184.4003 15.22683600220847
URSA MAIOR              
1 42776U 17036M   21165.85937922  .00001210  00000-0  54352-4 0  9990
2 42776  97.2482 212.6393 0013383 175.9568 184.1780 15.22945689220829
COMPASS 2               
1 42777U 17036N   21165.88900257  .00002399  00000-0  96743-4 0  9994
2 42777  97.2546 216.4837 0012064 168.2283 191.9239 15.25696183221023
DIAMOND RED             
1 42783U 17036U   21165.82193939  .00001348  00000-0  58637-4 0  9999
2 42783  97.2496 214.3020 0011523 182.1068 178.0123 15.23879518220918
PEGASUS                 
1 42784U 17036V   21165.87725775  .00001637  00000-0  69464-4 0  9995
2 42784  97.2501 215.0420 0011406 179.8249 180.2995 15.24433148220965
DIAMOND GREEN           
1 42785U 17036W   21165.88587009  .00001001  00000-0  44244-4 0  9997
2 42785  97.2500 214.4130 0011394 182.3557 177.7629 15.23882737220992
DIAMOND BLUE            
1 42786U 17036X   21166.08194409  .00001391  00000-0  60385-4 0  9995
2 42786  97.2499 214.5953 0011289 181.8001 178.3197 15.23898558220945
NUDTSAT                 
1 42787U 17036Y   21165.95253298  .00002585  00000-0  10206-3 0  9995
2 42787  97.2546 217.5097 0009544 172.9905 187.1470 15.26366410220959
SUCHAI                  
1 42788U 17036Z   21165.87765699  .00001931  00000-0  79551-4 0  9993
2 42788  97.2507 216.0274 0011037 176.2449 183.8874 15.25224302221097
SKCUBE                  
1 42789U 17036AA  21165.90635853  .00001811  00000-0  75371-4 0  9999
2 42789  97.2500 215.7691 0010936 176.8105 183.3205 15.24960987221001
VZLUSAT-1               
1 42790U 17036AB  21165.88099424  .00002491  00000-0  98476-4 0  9992
2 42790  97.2531 217.4312 0010496 171.8355 188.3057 15.26344868221094
ROBUSTA-1B              
1 42792U 17036AD  21165.87560787  .00001866  00000-0  77054-4 0  9992
2 42792  97.2503 216.1175 0010516 176.4464 183.6851 15.25196265221032
CICERO 6                
1 42793U 17036AE  21165.86832243  .00001255  00000-0  54470-4 0  9990
2 42793  97.2479 214.9315 0009801 180.6309 179.4918 15.24086295221045
D-SAT                   
1 42794U 17036AF  21165.94334850  .00000395  00000-0  39480-4 0  9999
2 42794  97.4608 185.9692 0124215 233.9223 125.0442 14.91576354216687
CORVUS BC2              
1 42846U 17042X   21165.88452680  .00000037  00000-0  87342-5 0  9993
2 42846  97.4729  38.0379 0010487 139.7367 220.4631 14.92301888213457
CORVUS BC1              
1 42847U 17042Y   21166.12367148  .00000375  00000-0  41776-4 0  9991
2 42847  97.4732  38.5025 0010202 137.9438 222.2566 14.92403769213491
MIRATA                  
1 43015U 17073C   21165.95950103  .00001165  00000-0  94439-4 0  9994
2 43015  97.7041  70.3515 0248484 305.2583  52.5604 14.80748658192847
MAKERSAT 0              
1 43016U 17073D   21165.72223735  .00000838  00000-0  69982-4 0  9995
2 43016  97.7075  70.1615 0252315 308.2144  49.6590 14.79997860192770
DELLINGR (RBLE)         
1 43021U 98067NJ  21161.58356675  .11371101  12760-4  85574-4 0  9994
2 43021  51.6049 216.0033 0005565 279.2361  80.8041 16.52395905203598
AEROCUBE 7B (OCSD B)    
1 43042U 17071F   21165.50027950  .00006775  00000-0  13345-3 0  9996
2 43042  51.6372  84.5175 0002646 310.2950  49.7806 15.48463166198373
AEROCUBE 7C (OCSD C)    
1 43043U 17071G   21165.39492427  .00006882  00000-0  13642-3 0  9998
2 43043  51.6363  85.3171 0002928 313.6842  46.3903 15.48251690198322
CHEFSAT                 
1 43044U 17071H   21165.90608839  .00021316  00000-0  26249-3 0  9998
2 43044  51.6359  47.9027 0001190 356.1651   3.9332 15.60167179198879
ASGARDIA 1              
1 43049U 17071N   21165.39814336  .00006195  00000-0  12430-3 0  9992
2 43049  51.6382  84.7174 0001501 356.8399   3.2579 15.48090758198335
ISARA                   
1 43050U 17071P   21165.90187058  .00016175  00000-0  22503-3 0  9996
2 43050  51.6330  55.1510 0001171  57.8894 302.2211 15.57124466198774
PROPCUBE 2 (FAUNA)      
1 43052U 17071R   21166.01037209  .00006573  00000-0  12729-3 0  9993
2 43052  51.6368  78.3066 0001353   0.7783 359.3208 15.49014706198467
CORVUS BC3              
1 43118U 18004H   21165.92245992  .00001123  00000-0  48903-4 0  9992
2 43118  97.4033 238.4963 0009139 210.1378 149.9335 15.24251564190193
MICROMAS-2A             
1 43131U 18004W   21165.89434628  .00002868  00000-0  10966-3 0  9993
2 43131  97.4107 241.8332 0007836 200.5520 159.5405 15.27389850190370
SPACEBEE-4              
1 43139U 18004AE  21165.46224397  .00004284  00000-0  15191-3 0  9993
2 43139  97.4172 243.7453 0007199 198.4666 161.6314 15.29610574190435
SPACEBEE-3              
1 43140U 18004AF  21165.76593199  .00005508  00000-0  18433-3 0  9999
2 43140  97.4203 245.5305 0006922 191.6429 168.4653 15.31360800190565
SPACEBEE-2              
1 43141U 18004AG  21165.44846614  .00006119  00000-0  20073-3 0  9990
2 43141  97.4224 245.7824 0006847 191.2800 168.8289 15.31963736190546
SPACEBEE-1              
1 43142U 18004AH  21165.68827787  .00006374  00000-0  20426-3 0  9992
2 43142  97.4233 246.5957 0006854 189.0444 171.0675 15.32698625190605
CICERO 7                
1 43143U 18004AJ  21165.77281954  .00002532  00000-0  97590-4 0  9992
2 43143  97.4082 241.7626 0005933 208.4770 151.6146 15.27244851190376
GOMX-4B                 
1 43196U 18015E   21165.90920151  .00000523  00000-0  23909-4 0  9997
2 43196  97.4850 298.9345 0016633 269.1957  90.7375 15.24943984187125
GOMX-4A                 
1 43197U 18015F   21166.19490919  .00001235  00000-0  51643-4 0  9991
2 43197  97.4838 299.4741 0016735 269.0586 212.8126 15.25443842187195
TEMPEST-D               
1 43547U 98067NV  21165.36747575  .00415734  94511-4  48962-3 0  9992
2 43547  51.6228 254.6550 0009767 334.1791  25.8733 16.07917845166507
AEROCUBE 12A            
1 43556U 18046C   21165.72691652  .00002556  00000-0  93905-4 0  9993
2 43556  51.6392 162.6134 0007709 150.1156 210.0266 15.31766837162863
AEROCUBE 12B            
1 43557U 18046D   21165.49440702  .00001301  00000-0  54613-4 0  9996
2 43557  51.6386 165.5275 0007952 147.9426 212.2040 15.31162556162759
SURFSAT                 
1 43614U 18070B   21165.88417428  .00004008  00000-0  93494-4 0  9996
2 43614  93.0320 304.9171 0014828  24.4491 335.7465 15.42161748154270
CP7 (DAVE)              
1 43615U 18070C   21165.90097989  .00003712  00000-0  87434-4 0  9994
2 43615  93.0324 304.8803 0015008  24.3292 335.8669 15.41873697154263
